{"type": "FeatureCollection", "features": [ {"type": "Feature", "properties": {"norad_id": 43010, "name": "FENGYUN 3D", "group": "weather", "lat": -42.80487732335475, "lon": 136.535620340997, "alt_km": 832.7164311958095, "timestamp": "2025-12-24T11:32:59.645563+00:00", "meta": {"OBJECT_NAME": "FENGYUN 3D", "OBJECT_ID": "2017-072A", "EPOCH": "2025-12-24T05:25:35.973120", "MEAN_MOTION": 14.19687774, "ECCENTRICITY": 0.0001473, "INCLINATION": 98.9911, "RA_OF_ASC_NODE": 324.7087, "ARG_OF_PERICENTER": 149.0118, "MEAN_ANOMALY": 211.1145, "EPHEMERIS_TYPE": 0, "CLASSIFICATION_TYPE": "U", "NORAD_CAT_ID": 43010, "ELEMENT_SET_NO": 999, "REV_AT_EPOCH": 42016, "BSTAR": 0.00011925, "MEAN_MOTION_DOT": 2.06e-06, "MEAN_MOTION_DDOT": 0}, "tle": {"line1": "1 43010U 17072A   25358.22611080  .00000206  00000+0  11925-3 0  9996", "line2": "2 43010  98.9911 324.7087 0001473 149.0118 211.1145 14.19687774420169"}}, "geometry": {"type": "Point", "coordinates": [136.535620340997, -42.80487732335475]}}, {"type": "Feature", "properties": {"norad_id": 43013, "name": "NOAA 20 (JPSS-1)", "group": "weather", "lat": 8.534149801132708, "lon": -66.67568547152779, "alt_km": 827.9505332152567, "timestamp": "2025-12-24T11:32:59.645575+00:00", "meta": {"OBJECT_NAME": "NOAA 20 (JPSS-1)", "OBJECT_ID": "2017-073A", "EPOCH": "2025-12-24T01:21:33.925824", "MEAN_MOTION": 14.19528619, "ECCENTRICITY": 0.0002092, "INCLINATION": 98.7614, "RA_OF_ASC_NODE": 294.2304, "ARG_OF_PERICENTER": 70.9658, "MEAN_ANOMALY": 289.1744, "EPHEMERIS_TYPE": 0, "CLASSIFICATION_TYPE": "U", "NORAD_CAT_ID": 43013, "ELEMENT_SET_NO": 999, "REV_AT_EPOCH": 41962, "BSTAR": 6.3744e-05, "MEAN_MOTION_DOT": 9e-07, "MEAN_MOTION_DDOT": 0}, "tle": {"line1": "1 43013U 17073A   25358.05664266  .00000090  00000+0  63744-4 0  9993", "line2": "2 43013  98.7614 294.2304 0002092  70.9658 289.1744 14.19528619419623"}}, "geometry": {"type": "Point", "coordinates": [-66.67568547152779, 8.534149801132708]}}, {"type": "Feature", "properties": {"norad_id": 43226, "name": "GOES 17", "group": "weather", "lat": 0.49124913795735514, "lon": 176.96315415520837, "alt_km": 35788.780034912175, "timestamp": "2025-12-24T11:32:59.645587+00:00", "meta": {"OBJECT_NAME": "GOES 17", "OBJECT_ID": "2018-022A", "EPOCH": "2025-12-24T03:36:41.453856", "MEAN_MOTION": 1.00272312, "ECCENTRICITY": 0.0003048, "INCLINATION": 0.4853, "RA_OF_ASC_NODE": 89.0688, "ARG_OF_PERICENTER": 190.8771, "MEAN_ANOMALY": 137.6549, "EPHEMERIS_TYPE": 0, "CLASSIFICATION_TYPE": "U", "NORAD_CAT_ID": 43226, "ELEMENT_SET_NO": 999, "REV_AT_EPOCH": 2866, "BSTAR": 0, "MEAN_MOTION_DOT": -1.62e-06, "MEAN_MOTION_DDOT": 0}, "tle": {"line1": "1 43226U 18022A   25358.15047979 -.00000162  00000+0  00000+0 0  9993", "line2": "2 43226   0.4853  89.0688 0003048 190.8771 137.6549  1.00272312 28661"}}, "geometry": {"type": "Point", "coordinates": [176.96315415520837, 0.49124913795735514]}}, {"type": "Feature", "properties": {"norad_id": 43491, "name": "FENGYUN 2H", "group": "weather", "lat": -2.579534559523735, "lon": -14.136933069382025, "alt_km": 35788.117687428865, "timestamp": "2025-12-24T11:32:59.645609+00:00", "meta": {"OBJECT_NAME": "FENGYUN 2H", "OBJECT_ID": "2018-050A", "EPOCH": "2025-12-23T23:46:50.748960", "MEAN_MOTION": 1.00270747, "ECCENTRICITY": 0.0002379, "INCLINATION": 2.5781, "RA_OF_ASC_NODE": 81.2114, "ARG_OF_PERICENTER": 166.455, "MEAN_ANOMALY": 281.1598, "EPHEMERIS_TYPE": 0, "CLASSIFICATION_TYPE": "U", "NORAD_CAT_ID": 43491, "ELEMENT_SET_NO": 999, "REV_AT_EPOCH": 2768, "BSTAR": 0, "MEAN_MOTION_DOT": -1.1e-06, "MEAN_MOTION_DDOT": 0}, "tle": {"line1": "1 43491U 18050A   25357.99086515 -.00000110  00000+0  00000+0 0  9991", "line2": "2 43491   2.5781  81.2114 0002379 166.4550 281.1598  1.00270747 27686"}}, "geometry": {"type": "Point", "coordinates": [-14.136933069382025, -2.579534559523735]}}, {"type": "Feature", "properties": {"norad_id": 43689, "name": "METOP-C", "group": "weather", "lat": -51.64752397850696, "lon": -135.07670680440899, "alt_km": 827.6331299840986, "timestamp": "2025-12-24T11:32:59.645623+00:00", "meta": {"OBJECT_NAME": "METOP-C", "OBJECT_ID": "2018-087A", "EPOCH": "2025-12-24T03:42:08.991072", "MEAN_MOTION": 14.21488597, "ECCENTRICITY": 6.84e-05, "INCLINATION": 98.6913, "RA_OF_ASC_NODE": 55.7481, "ARG_OF_PERICENTER": 18.2164, "MEAN_ANOMALY": 341.9037, "EPHEMERIS_TYPE": 0, "CLASSIFICATION_TYPE": "U", "NORAD_CAT_ID": 43689, "ELEMENT_SET_NO": 999, "REV_AT_EPOCH": 36996, "BSTAR": 7.5297e-05, "MEAN_MOTION_DOT": 1.21e-06, "MEAN_MOTION_DDOT": 0}, "tle": {"line1": "1 43689U 18087A   25358.15427073  .00000121  00000+0  75297-4 0  9993", "line2": "2 43689  98.6913  55.7481 0000684  18.2164 341.9037 14.21488597369967"}}, "geometry": {"type": "Point", "coordinates": [-135.07670680440899, -51.64752397850696]}}, {"type": "Feature", "properties": {"norad_id": 43823, "name": "GEO-KOMPSAT-2A", "group": "weather", "lat": -0.022564869321535428, "lon": 34.746203432646965, "alt_km": 35786.04630601793, "timestamp": "2025-12-24T11:32:59.645636+00:00", "meta": {"OBJECT_NAME": "GEO-KOMPSAT-2A", "OBJECT_ID": "2018-100A", "EPOCH": "2025-12-23T23:16:38.882208", "MEAN_MOTION": 1.00269322, "ECCENTRICITY": 3.09e-05, "INCLINATION": 0.0454, "RA_OF_ASC_NODE": 176.4118, "ARG_OF_PERICENTER": 270.2699, "MEAN_ANOMALY": 123.4879, "EPHEMERIS_TYPE": 0, "CLASSIFICATION_TYPE": "U", "NORAD_CAT_ID": 43823, "ELEMENT_SET_NO": 999, "REV_AT_EPOCH": 2587, "BSTAR": 0, "MEAN_MOTION_DOT": -3.23e-06, "MEAN_MOTION_DDOT": 0}, "tle": {"line1": "1 43823U 18100A   25357.96989447 -.00000323  00000+0  00000+0 0  9995", "line2": "2 43823   0.0454 176.4118 0000309 270.2699 123.4879  1.00269322 25871"}}, "geometry": {"type": "Point", "coordinates": [34.746203432646965, -0.022564869321535428]}}, {"type": "Feature", "properties": {"norad_id": 44387, "name": "METEOR-M2 2", "group": "weather", "lat": 63.71002433238908, "lon": -40.13524123713208, "alt_km": 803.9644344094295, "timestamp": "2025-12-24T11:32:59.645656+00:00", "meta": {"OBJECT_NAME": "METEOR-M2 2", "OBJECT_ID": "2019-038A", "EPOCH": "2025-12-24T04:30:03.964896", "MEAN_MOTION": 14.24296508, "ECCENTRICITY": 0.0001761, "INCLINATION": 98.8983, "RA_OF_ASC_NODE": 338.0568, "ARG_OF_PERICENTER": 125.5742, "MEAN_ANOMALY": 234.5601, "EPHEMERIS_TYPE": 0, "CLASSIFICATION_TYPE": "U", "NORAD_CAT_ID": 44387, "ELEMENT_SET_NO": 999, "REV_AT_EPOCH": 33638, "BSTAR": 0.00012216, "MEAN_MOTION_DOT": 2.36e-06, "MEAN_MOTION_DDOT": 0}, "tle": {"line1": "1 44387U 19038A   25358.18754589  .00000236  00000+0  12216-3 0  9992", "line2": "2 44387  98.8983 338.0568 0001761 125.5742 234.5601 14.24296508336382"}}, "geometry": {"type": "Point", "coordinates": [-40.13524123713208, 63.71002433238908]}}, {"type": "Feature", "properties": {"norad_id": 47719, "name": "ARKTIKA-M 1", "group": "weather", "lat": 20.51823205792712, "lon": -108.45239768570411, "alt_km": 11191.904205479463, "timestamp": "2025-12-24T11:32:59.645679+00:00", "meta": {"OBJECT_NAME": "ARKTIKA-M 1", "OBJECT_ID": "2021-016A", "EPOCH": "2025-12-23T01:01:51.743136", "MEAN_MOTION": 2.00630806, "ECCENTRICITY": 0.72093828, "INCLINATION": 63.1759, "RA_OF_ASC_NODE": 82.5898, "ARG_OF_PERICENTER": 269.1646, "MEAN_ANOMALY": 15.5425, "EPHEMERIS_TYPE": 0, "CLASSIFICATION_TYPE": "U", "NORAD_CAT_ID": 47719, "ELEMENT_SET_NO": 999, "REV_AT_EPOCH": 3525, "BSTAR": 0, "MEAN_MOTION_DOT": -6.7e-07, "MEAN_MOTION_DDOT": 0}, "tle": {"line1": "1 47719U 21016A   25357.04295999 -.00000067  00000+0  00000+0 0  9999", "line2": "2 47719  63.1759  82.5898 7209382 269.1646  15.5425  2.00630806 35258"}}, "geometry": {"type": "Point", "coordinates": [-108.45239768570411, 20.51823205792712]}}, {"type": "Feature", "properties": {"norad_id": 49008, "name": "FENGYUN 3E", "group": "weather", "lat": -17.94721302273126, "lon": 176.00437448219796, "alt_km": 830.0538317252267, "timestamp": "2025-12-24T11:32:59.645706+00:00", "meta": {"OBJECT_NAME": "FENGYUN 3E", "OBJECT_ID": "2021-062A", "EPOCH": "2025-12-24T05:32:46.781664", "MEAN_MOTION": 14.19880911, "ECCENTRICITY": 8.8e-05, "INCLINATION": 98.7473, "RA_OF_ASC_NODE": 358.6157, "ARG_OF_PERICENTER": 192.9001, "MEAN_ANOMALY": 167.2153, "EPHEMERIS_TYPE": 0, "CLASSIFICATION_TYPE": "U", "NORAD_CAT_ID": 49008, "ELEMENT_SET_NO": 999, "REV_AT_EPOCH": 23175, "BSTAR": -6.5839e-06, "MEAN_MOTION_DOT": -5.8e-07, "MEAN_MOTION_DDOT": 0}, "tle": {"line1": "1 49008U 21062A   25358.23109701 -.00000058  00000+0 -65839-5 0  9998", "line2": "2 49008  98.7473 358.6157 0000880 192.9001 167.2153 14.19880911231759"}}, "geometry": {"type": "Point", "coordinates": [176.00437448219796, -17.94721302273126]}}, {"type": "Feature", "properties": {"norad_id": 51850, "name": "GOES 18", "group": "weather", "lat": 0.0070608639234918, "lon": 129.49715466416185, "alt_km": 35787.700091202445, "timestamp": "2025-12-24T11:32:59.645728+00:00", "meta": {"OBJECT_NAME": "GOES 18", "OBJECT_ID": "2022-021A", "EPOCH": "2025-12-23T22:45:11.653056", "MEAN_MOTION": 1.00271171, "ECCENTRICITY": 3.74e-05, "INCLINATION": 0.0325, "RA_OF_ASC_NODE": 219.2573, "ARG_OF_PERICENTER": 108.3208, "MEAN_ANOMALY": 329.4496, "EPHEMERIS_TYPE": 0, "CLASSIFICATION_TYPE": "U", "NORAD_CAT_ID": 51850, "ELEMENT_SET_NO": 999, "REV_AT_EPOCH": 483, "BSTAR": 0, "MEAN_MOTION_DOT": 1.18e-06, "MEAN_MOTION_DDOT": 0}, "tle": {"line1": "1 51850U 22021A   25357.94805154  .00000118  00000+0  00000+0 0  9992", "line2": "2 51850   0.0325 219.2573 0000374 108.3208 329.4496  1.00271171  4838"}}, "geometry": {"type": "Point", "coordinates": [129.49715466416185, 0.0070608639234918]}}]}